start=new Date('2023-06-02T00:00:00.000Z').valueOf();
sats=[{"BSTAR":"-0.00014911000000","PERIAPSIS":"533.942","MEAN_ANOMALY":"282.1792","TLE_LINE2":"2 54774  53.2165 253.1775 0001110  77.9326 282.1792 15.10488959 27312","ECCENTRICITY":"0.00011100","NORAD_CAT_ID":"54774","RCS_SIZE":"LARGE","DECAY_DATE":null,"MEAN_MOTION_DOT":"-0.00002775","REV_AT_EPOCH":"2731","SEMIMAJOR_AXIS":"6912.845","GP_ID":"232964677","MEAN_MOTION":"15.10488959","EPOCH":"2023-06-01T09:57:15.268320","RA_OF_ASC_NODE":"253.1775","CENTER_NAME":"EARTH","OBJECT_ID":"2022-175S","MEAN_MOTION_DDOT":"0.0000000000000","TIME_SYSTEM":"UTC","FILE":"3922365","ELEMENT_SET_NO":"999","ARG_OF_PERICENTER":"77.9326","PERIOD":"95.333","CLASSIFICATION_TYPE":"U","COUNTRY_CODE":"US","OBJECT_NAME":"STARLINK-5454","APOAPSIS":"535.477","SITE":"AFETR","LAUNCH_DATE":"2022-12-17","INCLINATION":"53.2165","REF_FRAME":"TEME","MEAN_ELEMENT_THEORY":"SGP4","OBJECT_TYPE":"PAYLOAD","TLE_LINE1":"1 54774U 22175S   23152.41476005 -.00002775  00000-0 -14911-3 0  9996","EPHEMERIS_TYPE":"0"},{"MEAN_MOTION_DDOT":"0.0000000000000","ELEMENT_SET_NO":"999","FILE":"3922369","TIME_SYSTEM":"UTC","PERIOD":"95.438","ARG_OF_PERICENTER":"88.3939","CLASSIFICATION_TYPE":"U","COUNTRY_CODE":"US","OBJECT_NAME":"STARLINK-5465","APOAPSIS":"540.313","SITE":"AFETR","INCLINATION":"53.2167","LAUNCH_DATE":"2022-12-17","REF_FRAME":"TEME","EPHEMERIS_TYPE":"0","TLE_LINE1":"1 54775U 22175T   23152.35799392  .00000506  00000-0  49899-4 0  9999","MEAN_ELEMENT_THEORY":"SGP4","OBJECT_TYPE":"PAYLOAD","BSTAR":"0.00004989900000","PERIAPSIS":"539.209","MEAN_ANOMALY":"271.7144","TLE_LINE2":"2 54775  53.2167 268.4912 0000798  88.3939 271.7144 15.08834896 24936","NORAD_CAT_ID":"54775","ECCENTRICITY":"0.00007980","DECAY_DATE":null,"RCS_SIZE":"LARGE","MEAN_MOTION_DOT":"0.00000506","SEMIMAJOR_AXIS":"6917.896","REV_AT_EPOCH":"2493","GP_ID":"232966611","RA_OF_ASC_NODE":"268.4912","MEAN_MOTION":"15.08834896","EPOCH":"2023-06-01T08:35:30.674688","CENTER_NAME":"EARTH","OBJECT_ID":"2022-175T"},{"RCS_SIZE":"LARGE","DECAY_DATE":null,"NORAD_CAT_ID":"54776","ECCENTRICITY":"0.00010980","TLE_LINE2":"2 54776  53.2183 271.0314 0001098 106.8221 253.2891 15.08851895 27008","MEAN_ANOMALY":"253.2891","PERIAPSIS":"538.949","BSTAR":"0.00014746000000","OBJECT_ID":"2022-175U","CENTER_NAME":"EARTH","RA_OF_ASC_NODE":"271.0314","EPOCH":"2023-05-31T17:45:11.423520","MEAN_MOTION":"15.08851895","GP_ID":"232929807","SEMIMAJOR_AXIS":"6917.844","REV_AT_EPOCH":"2700","MEAN_MOTION_DOT":"0.00002061","CLASSIFICATION_TYPE":"U","COUNTRY_CODE":"US","OBJECT_NAME":"STARLINK-5470","PERIOD":"95.437","ARG_OF_PERICENTER":"106.8221","ELEMENT_SET_NO":"999","FILE":"3922037","TIME_SYSTEM":"UTC","MEAN_MOTION_DDOT":"0.0000000000000","EPHEMERIS_TYPE":"0","TLE_LINE1":"1 54776U 22175U   23151.73971555  .00002061  00000-0  14746-3 0  9994","MEAN_ELEMENT_THEORY":"SGP4","OBJECT_TYPE":"PAYLOAD","REF_FRAME":"TEME","INCLINATION":"53.2183","LAUNCH_DATE":"2022-12-17","SITE":"AFETR","APOAPSIS":"540.469"},{"CLASSIFICATION_TYPE":"U","COUNTRY_CODE":"US","OBJECT_NAME":"STARLINK-5468","MEAN_MOTION_DDOT":"0.0000000000000","TIME_SYSTEM":"UTC","FILE":"3922365","ELEMENT_SET_NO":"999","ARG_OF_PERICENTER":"132.7673","PERIOD":"95.437","REF_FRAME":"TEME","MEAN_ELEMENT_THEORY":"SGP4","OBJECT_TYPE":"PAYLOAD","TLE_LINE1":"1 54777U 22175V   23152.02310257 -.00000973  00000-0 -43037-4 0  9992","EPHEMERIS_TYPE":"0","APOAPSIS":"540.192","SITE":"AFETR","LAUNCH_DATE":"2022-12-17","INCLINATION":"53.2169","TLE_LINE2":"2 54777  53.2169 269.9570 0000662 132.7673 227.3375 15.08843829 27049","ECCENTRICITY":"0.00006620","NORAD_CAT_ID":"54777","RCS_SIZE":"LARGE","DECAY_DATE":null,"BSTAR":"-0.00004303700000","PERIAPSIS":"539.276","MEAN_ANOMALY":"227.3375","MEAN_MOTION":"15.08843829","EPOCH":"2023-06-01T00:33:16.062048","RA_OF_ASC_NODE":"269.9570","CENTER_NAME":"EARTH","OBJECT_ID":"2022-175V","MEAN_MOTION_DOT":"-0.00000973","REV_AT_EPOCH":"2704","SEMIMAJOR_AXIS":"6917.869","GP_ID":"232965924"},{"SITE":"AFETR","APOAPSIS":"540.271","LAUNCH_DATE":"2022-12-17","INCLINATION":"53.2177","OBJECT_TYPE":"PAYLOAD","MEAN_ELEMENT_THEORY":"SGP4","EPHEMERIS_TYPE":"0","TLE_LINE1":"1 54778U 22175W   23152.44219834 -.00000498  00000-0 -13206-4 0  9995","REF_FRAME":"TEME","MEAN_MOTION_DDOT":"0.0000000000000","ARG_OF_PERICENTER":"84.2238","PERIOD":"95.438","TIME_SYSTEM":"UTC","ELEMENT_SET_NO":"999","FILE":"3922404","CLASSIFICATION_TYPE":"U","COUNTRY_CODE":"US","OBJECT_NAME":"STARLINK-5450","REV_AT_EPOCH":"2515","SEMIMAJOR_AXIS":"6917.902","MEAN_MOTION_DOT":"-0.00000498","GP_ID":"232967912","CENTER_NAME":"EARTH","MEAN_MOTION":"15.08832929","EPOCH":"2023-06-01T10:36:45.936576","RA_OF_ASC_NODE":"253.3411","OBJECT_ID":"2022-175W","BSTAR":"-0.00001320600000","MEAN_ANOMALY":"275.8837","PERIAPSIS":"539.263","ECCENTRICITY":"0.00007290","NORAD_CAT_ID":"54778","TLE_LINE2":"2 54778  53.2177 253.3411 0000729  84.2238 275.8837 15.08832929 25152","DECAY_DATE":null,"RCS_SIZE":"LARGE"},{"BSTAR":"0.00005118300000","PERIAPSIS":"539.214","MEAN_ANOMALY":"246.7011","TLE_LINE2":"2 54779  53.2160 253.3662 0000781 113.4063 246.7011 15.08837024 25154","NORAD_CAT_ID":"54779","ECCENTRICITY":"0.00007810","RCS_SIZE":"LARGE","DECAY_DATE":null,"MEAN_MOTION_DOT":"0.00000527","SEMIMAJOR_AXIS":"6917.889","REV_AT_EPOCH":"2515","GP_ID":"232967203","RA_OF_ASC_NODE":"253.3662","EPOCH":"2023-06-01T10:42:04.351680","MEAN_MOTION":"15.08837024","CENTER_NAME":"EARTH","OBJECT_ID":"2022-175X","MEAN_MOTION_DDOT":"0.0000000000000","FILE":"3922381","ELEMENT_SET_NO":"999","TIME_SYSTEM":"UTC","PERIOD":"95.438","ARG_OF_PERICENTER":"113.4063","COUNTRY_CODE":"US","OBJECT_NAME":"STARLINK-5447","CLASSIFICATION_TYPE":"U","APOAPSIS":"540.295","SITE":"AFETR","INCLINATION":"53.2160","LAUNCH_DATE":"2022-12-17","REF_FRAME":"TEME","EPHEMERIS_TYPE":"0","TLE_LINE1":"1 54779U 22175X   23152.44588370  .00000527  00000-0  51183-4 0  9997","OBJECT_TYPE":"PAYLOAD","MEAN_ELEMENT_THEORY":"SGP4"},{"COUNTRY_CODE":"US","OBJECT_NAME":"STARLINK-5449","CLASSIFICATION_TYPE":"U","ELEMENT_SET_NO":"999","FILE":"3922365","TIME_SYSTEM":"UTC","PERIOD":"95.438","ARG_OF_PERICENTER":"85.8133","MEAN_MOTION_DDOT":"0.0000000000000","REF_FRAME":"TEME","EPHEMERIS_TYPE":"0","TLE_LINE1":"1 54780U 22175Y   23152.42745608  .00000392  00000-0  42703-4 0  9994","MEAN_ELEMENT_THEORY":"SGP4","OBJECT_TYPE":"PAYLOAD","INCLINATION":"53.2177","LAUNCH_DATE":"2022-12-17","APOAPSIS":"540.362","SITE":"AFETR","DECAY_DATE":null,"RCS_SIZE":"LARGE","TLE_LINE2":"2 54780  53.2177 253.2431 0000883  85.8133 274.2960 15.08837960 27318","NORAD_CAT_ID":"54780","ECCENTRICITY":"0.00008830","PERIAPSIS":"539.141","MEAN_ANOMALY":"274.2960","BSTAR":"0.00004270300000","OBJECT_ID":"2022-175Y","RA_OF_ASC_NODE":"253.2431","MEAN_MOTION":"15.08837960","EPOCH":"2023-06-01T10:15:32.205312","CENTER_NAME":"EARTH","GP_ID":"232965679","MEAN_MOTION_DOT":"0.00000392","SEMIMAJOR_AXIS":"6917.887","REV_AT_EPOCH":"2731"},{"REV_AT_EPOCH":"2733","SEMIMAJOR_AXIS":"6917.877","MEAN_MOTION_DOT":"0.00000827","GP_ID":"232999699","CENTER_NAME":"EARTH","EPOCH":"2023-06-01T13:42:13.365792","MEAN_MOTION":"15.08841235","RA_OF_ASC_NODE":"252.7154","OBJECT_ID":"2022-175Z","BSTAR":"0.00007004900000","MEAN_ANOMALY":"244.7066","PERIAPSIS":"538.927","ECCENTRICITY":"0.00011780","NORAD_CAT_ID":"54781","TLE_LINE2":"2 54781  53.2179 252.7154 0001178 115.4048 244.7066 15.08841235 27331","DECAY_DATE":null,"RCS_SIZE":"LARGE","SITE":"AFETR","APOAPSIS":"540.557","LAUNCH_DATE":"2022-12-17","INCLINATION":"53.2179","OBJECT_TYPE":"PAYLOAD","MEAN_ELEMENT_THEORY":"SGP4","EPHEMERIS_TYPE":"0","TLE_LINE1":"1 54781U 22175Z   23152.57098803  .00000827  00000-0  70049-4 0  9996","REF_FRAME":"TEME","MEAN_MOTION_DDOT":"0.0000000000000","ARG_OF_PERICENTER":"115.4048","PERIOD":"95.437","TIME_SYSTEM":"UTC","ELEMENT_SET_NO":"999","FILE":"3922718","CLASSIFICATION_TYPE":"U","COUNTRY_CODE":"US","OBJECT_NAME":"STARLINK-5443"},{"MEAN_MOTION_DOT":"0.00006399","SEMIMAJOR_AXIS":"6900.233","REV_AT_EPOCH":"2781","GP_ID":"232999949","RA_OF_ASC_NODE":"220.5253","MEAN_MOTION":"15.14632071","EPOCH":"2023-06-01T21:16:50.775456","CENTER_NAME":"EARTH","OBJECT_ID":"2022-175AA","BSTAR":"0.00035823000000","PERIAPSIS":"521.126","MEAN_ANOMALY":"287.8217","TLE_LINE2":"2 54782  53.2184 220.5253 0001409  72.2932 287.8217 15.14632071 27812","NORAD_CAT_ID":"54782","ECCENTRICITY":"0.00014090","DECAY_DATE":null,"RCS_SIZE":"LARGE","APOAPSIS":"523.070","SITE":"AFETR","INCLINATION":"53.2184","LAUNCH_DATE":"2022-12-17","REF_FRAME":"TEME","TLE_LINE1":"1 54782U 22175AA  23152.88669879  .00006399  00000-0  35823-3 0  9998","EPHEMERIS_TYPE":"0","MEAN_ELEMENT_THEORY":"SGP4","OBJECT_TYPE":"PAYLOAD","MEAN_MOTION_DDOT":"0.0000000000000","FILE":"3922718","ELEMENT_SET_NO":"999","TIME_SYSTEM":"UTC","PERIOD":"95.073","ARG_OF_PERICENTER":"72.2932","OBJECT_NAME":"STARLINK-5437","COUNTRY_CODE":"US","CLASSIFICATION_TYPE":"U"},{"RCS_SIZE":"LARGE","DECAY_DATE":null,"ECCENTRICITY":"0.00007960","NORAD_CAT_ID":"54783","TLE_LINE2":"2 54783  53.2167 253.2934 0000796  93.3693 266.7390 15.08834021 25154","MEAN_ANOMALY":"266.7390","PERIAPSIS":"539.213","BSTAR":"0.00008079700000","OBJECT_ID":"2022-175AB","CENTER_NAME":"EARTH","EPOCH":"2023-06-01T10:26:09.402720","MEAN_MOTION":"15.08834021","RA_OF_ASC_NODE":"253.2934","GP_ID":"232966615","REV_AT_EPOCH":"2515","SEMIMAJOR_AXIS":"6917.899","MEAN_MOTION_DOT":"0.00000998","COUNTRY_CODE":"US","CLASSIFICATION_TYPE":"U","OBJECT_NAME":"STARLINK-5439","ARG_OF_PERICENTER":"93.3693","PERIOD":"95.438","TIME_SYSTEM":"UTC","ELEMENT_SET_NO":"999","FILE":"3922371","MEAN_MOTION_DDOT":"0.0000000000000","OBJECT_TYPE":"PAYLOAD","MEAN_ELEMENT_THEORY":"SGP4","EPHEMERIS_TYPE":"0","TLE_LINE1":"1 54783U 22175AB  23152.43483105  .00000998  00000-0  80797-4 0  9996","REF_FRAME":"TEME","LAUNCH_DATE":"2022-12-17","INCLINATION":"53.2167","SITE":"AFETR","APOAPSIS":"540.314"}];
